{"type":"FeatureCollection","metadata":{"generated":1783639570000,"url":"https://earthquake.usgs.gov/fdsnws/event/1/query?format=geojson&minlatitude=-56&maxlatitude=-17&minlongitude=-76&maxlongitude=-66&maxdepth=30&minmagnitude=2.5&orderby=time&limit=500","title":"USGS Earthquakes","status":200,"api":"2.7.0","limit":500,"offset":1},"features":[{"type":"Feature","properties":{"mag":4.8,"place":"48 km WSW of La Ligua, Chile","time":1783354690947,"updated":1783356777337,"tz":null,"url":"https://earthquake.usgs.gov/earthquakes/eventpage/us6000taht","detail":"https://earthquake.usgs.gov/fdsnws/event/1/query?eventid=us6000taht&format=geojson","felt":1,"cdi":2.2,"mmi":null,"alert":null,"status":"reviewed","tsunami":0,"sig":355,"net":"us","code":"6000taht","ids":",us6000taht,","sources":",us,","types":",dyfi,origin,phase-data,","nst":28,"dmin":0.448,"rms":0.76,"gap":149,"magType":"mb","type":"earthquake","title":"M 4.8 - 48 km WSW of La Ligua, Chile"},"geometry":{"type":"Point","coordinates":[-71.7297,-32.5786,29.486]},"id":"us6000taht"},
{"type":"Feature","properties":{"mag":5.1,"place":"56 km W of La Ligua, Chile","time":1783354551905,"updated":1783386700616,"tz":null,"url":"https://earthquake.usgs.gov/earthquakes/eventpage/us6000tahc","detail":"https://earthquake.usgs.gov/fdsnws/event/1/query?eventid=us6000tahc&format=geojson","felt":49,"cdi":3.8,"mmi":null,"alert":null,"status":"reviewed","tsunami":0,"sig":419,"net":"us","code":"6000tahc","ids":",us6000tahc,usauto6000tahc,","sources":",us,usauto,","types":",dyfi,internal-moment-tensor,origin,phase-data,","nst":63,"dmin":0.5,"rms":0.74,"gap":68,"magType":"mb","type":"earthquake","title":"M 5.1 - 56 km W of La Ligua, Chile"},"geometry":{"type":"Point","coordinates":[-71.8252,-32.5446,20.998]},"id":"us6000tahc"},
{"type":"Feature","properties":{"mag":5,"place":"106 km NW of Coquimbo, Chile","time":1783266813718,"updated":1783267790040,"tz":null,"url":"https://earthquake.usgs.gov/earthquakes/eventpage/us6000taab","detail":"https://earthquake.usgs.gov/fdsnws/event/1/query?eventid=us6000taab&format=geojson","felt":null,"cdi":null,"mmi":null,"alert":null,"status":"reviewed","tsunami":0,"sig":385,"net":"us","code":"6000taab","ids":",us6000taab,","sources":",us,","types":",origin,phase-data,","nst":59,"dmin":0.986,"rms":1.03,"gap":106,"magType":"mb","type":"earthquake","title":"M 5.0 - 106 km NW of Coquimbo, Chile"},"geometry":{"type":"Point","coordinates":[-72.0113,-29.1964,10]},"id":"us6000taab"},
{"type":"Feature","properties":{"mag":5,"place":"98 km NW of Coquimbo, Chile","time":1783262524314,"updated":1783263661040,"tz":null,"url":"https://earthquake.usgs.gov/earthquakes/eventpage/us6000ta9n","detail":"https://earthquake.usgs.gov/fdsnws/event/1/query?eventid=us6000ta9n&format=geojson","felt":null,"cdi":null,"mmi":null,"alert":null,"status":"reviewed","tsunami":0,"sig":385,"net":"us","code":"6000ta9n","ids":",us6000ta9n,","sources":",us,","types":",origin,phase-data,","nst":55,"dmin":0.916,"rms":1.24,"gap":91,"magType":"mww","type":"earthquake","title":"M 5.0 - 98 km NW of Coquimbo, Chile"},"geometry":{"type":"Point","coordinates":[-71.9385,-29.2333,10]},"id":"us6000ta9n"},
{"type":"Feature","properties":{"mag":4.5,"place":"71 km W of Ovalle, Chile","time":1783252647433,"updated":1783254388040,"tz":null,"url":"https://earthquake.usgs.gov/earthquakes/eventpage/us6000ta95","detail":"https://earthquake.usgs.gov/fdsnws/event/1/query?eventid=us6000ta95&format=geojson","felt":null,"cdi":null,"mmi":null,"alert":null,"status":"reviewed","tsunami":0,"sig":312,"net":"us","code":"6000ta95","ids":",us6000ta95,","sources":",us,","types":",origin,phase-data,","nst":44,"dmin":0.26,"rms":0.56,"gap":138,"magType":"mb","type":"earthquake","title":"M 4.5 - 71 km W of Ovalle, Chile"},"geometry":{"type":"Point","coordinates":[-71.9367,-30.6592,17.675]},"id":"us6000ta95"},
{"type":"Feature","properties":{"mag":4.5,"place":"150 km WSW of Lebu, Chile","time":1782951919888,"updated":1782953107040,"tz":null,"url":"https://earthquake.usgs.gov/earthquakes/eventpage/us6000t9j7","detail":"https://earthquake.usgs.gov/fdsnws/event/1/query?eventid=us6000t9j7&format=geojson","felt":null,"cdi":null,"mmi":null,"alert":null,"status":"reviewed","tsunami":0,"sig":312,"net":"us","code":"6000t9j7","ids":",us6000t9j7,","sources":",us,","types":",origin,phase-data,","nst":23,"dmin":2.239,"rms":1.3,"gap":148,"magType":"mb","type":"earthquake","title":"M 4.5 - 150 km WSW of Lebu, Chile"},"geometry":{"type":"Point","coordinates":[-75.2307,-38.1347,10]},"id":"us6000t9j7"},
{"type":"Feature","properties":{"mag":4.2,"place":"109 km NW of Vallenar, Chile","time":1781238205941,"updated":1781243113040,"tz":null,"url":"https://earthquake.usgs.gov/earthquakes/eventpage/us7000ssef","detail":"https://earthquake.usgs.gov/fdsnws/event/1/query?eventid=us7000ssef&format=geojson","felt":null,"cdi":null,"mmi":null,"alert":null,"status":"reviewed","tsunami":0,"sig":271,"net":"us","code":"7000ssef","ids":",us7000ssef,","sources":",us,","types":",moment-tensor,origin,phase-data,","nst":34,"dmin":0.536,"rms":0.99,"gap":161,"magType":"mwr","type":"earthquake","title":"M 4.2 - 109 km NW of Vallenar, Chile"},"geometry":{"type":"Point","coordinates":[-71.5587,-27.8807,10.269]},"id":"us7000ssef"},
{"type":"Feature","properties":{"mag":4.4,"place":"109 km NW of Vallenar, Chile","time":1781201275415,"updated":1782332415040,"tz":null,"url":"https://earthquake.usgs.gov/earthquakes/eventpage/us7000ssai","detail":"https://earthquake.usgs.gov/fdsnws/event/1/query?eventid=us7000ssai&format=geojson","felt":null,"cdi":null,"mmi":null,"alert":null,"status":"reviewed","tsunami":0,"sig":298,"net":"us","code":"7000ssai","ids":",us7000ssai,","sources":",us,","types":",moment-tensor,origin,phase-data,","nst":30,"dmin":0.904,"rms":0.82,"gap":170,"magType":"mwr","type":"earthquake","title":"M 4.4 - 109 km NW of Vallenar, Chile"},"geometry":{"type":"Point","coordinates":[-71.4967,-27.8381,18.874]},"id":"us7000ssai"},
{"type":"Feature","properties":{"mag":5.5,"place":"124 km NW of Vallenar, Chile","time":1781180526893,"updated":1783339798258,"tz":null,"url":"https://earthquake.usgs.gov/earthquakes/eventpage/us7000ss82","detail":"https://earthquake.usgs.gov/fdsnws/event/1/query?eventid=us7000ss82&format=geojson","felt":null,"cdi":null,"mmi":4.212,"alert":"green","status":"reviewed","tsunami":0,"sig":465,"net":"us","code":"7000ss82","ids":",usauto7000ss82,us7000ss82,","sources":",usauto,us,","types":",internal-moment-tensor,losspager,moment-tensor,origin,phase-data,shakemap,","nst":119,"dmin":0.666,"rms":1.2,"gap":93,"magType":"mww","type":"earthquake","title":"M 5.5 - 124 km NW of Vallenar, Chile"},"geometry":{"type":"Point","coordinates":[-71.6701,-27.7955,9]},"id":"us7000ss82"},
{"type":"Feature","properties":{"mag":5.1,"place":"120 km NW of Vallenar, Chile","time":1781179588993,"updated":1783336025040,"tz":null,"url":"https://earthquake.usgs.gov/earthquakes/eventpage/us7000ss7x","detail":"https://earthquake.usgs.gov/fdsnws/event/1/query?eventid=us7000ss7x&format=geojson","felt":null,"cdi":null,"mmi":null,"alert":null,"status":"reviewed","tsunami":0,"sig":400,"net":"us","code":"7000ss7x","ids":",usauto7000ss7x,us7000ss7x,","sources":",usauto,us,","types":",internal-moment-tensor,moment-tensor,origin,phase-data,","nst":88,"dmin":0.63,"rms":1.19,"gap":84,"magType":"mww","type":"earthquake","title":"M 5.1 - 120 km NW of Vallenar, Chile"},"geometry":{"type":"Point","coordinates":[-71.6445,-27.8253,10]},"id":"us7000ss7x"},
{"type":"Feature","properties":{"mag":4.6,"place":"131 km NW of Vallenar, Chile","time":1781179321681,"updated":1783581040040,"tz":null,"url":"https://earthquake.usgs.gov/earthquakes/eventpage/us7000ss7w","detail":"https://earthquake.usgs.gov/fdsnws/event/1/query?eventid=us7000ss7w&format=geojson","felt":null,"cdi":null,"mmi":null,"alert":null,"status":"reviewed","tsunami":0,"sig":326,"net":"us","code":"7000ss7w","ids":",us7000ss7w,","sources":",us,","types":",origin,phase-data,","nst":27,"dmin":0.723,"rms":0.78,"gap":145,"magType":"mb","type":"earthquake","title":"M 4.6 - 131 km NW of Vallenar, Chile"},"geometry":{"type":"Point","coordinates":[-71.6898,-27.7267,23.578]},"id":"us7000ss7w"},
{"type":"Feature","properties":{"mag":4.3,"place":"119 km NW of Vallenar, Chile","time":1781157946748,"updated":1783117180040,"tz":null,"url":"https://earthquake.usgs.gov/earthquakes/eventpage/us7000ss61","detail":"https://earthquake.usgs.gov/fdsnws/event/1/query?eventid=us7000ss61&format=geojson","felt":null,"cdi":null,"mmi":null,"alert":null,"status":"reviewed","tsunami":0,"sig":284,"net":"us","code":"7000ss61","ids":",us7000ss61,","sources":",us,","types":",moment-tensor,origin,phase-data,","nst":26,"dmin":0.618,"rms":0.88,"gap":139,"magType":"mwr","type":"earthquake","title":"M 4.3 - 119 km NW of Vallenar, Chile"},"geometry":{"type":"Point","coordinates":[-71.6094,-27.8065,10]},"id":"us7000ss61"},
{"type":"Feature","properties":{"mag":5.2,"place":"118 km NW of Vallenar, Chile","time":1781155184524,"updated":1782635984157,"tz":null,"url":"https://earthquake.usgs.gov/earthquakes/eventpage/us7000ss5y","detail":"https://earthquake.usgs.gov/fdsnws/event/1/query?eventid=us7000ss5y&format=geojson","felt":1,"cdi":2,"mmi":null,"alert":null,"status":"reviewed","tsunami":0,"sig":416,"net":"us","code":"7000ss5y","ids":",us7000ss5y,usauto7000ss5y,","sources":",us,usauto,","types":",dyfi,internal-moment-tensor,moment-tensor,origin,phase-data,","nst":52,"dmin":0.609,"rms":0.91,"gap":138,"magType":"mww","type":"earthquake","title":"M 5.2 - 118 km NW of Vallenar, Chile"},"geometry":{"type":"Point","coordinates":[-71.6251,-27.8375,10.001]},"id":"us7000ss5y"}],"bbox":[-75.2307,-38.1347,9,-71.4967,-27.7267,29.486]}